NORAD_CAT_ID,OBJECT_NAME,OBJECT_TYPE,EPOCH,MEAN_MOTION,ECCENTRICITY,INCLINATION,RA_OF_ASC_NODE,ARG_OF_PERICENTER,MEAN_ANOMALY,BSTAR,MEAN_MOTION_DOT,MEAN_MOTION_DDOT,TLE_LINE0,TLE_LINE1,TLE_LINE2,SEMIMAJOR_AXIS,PERIOD,APOGEE,PERIGEE,DECAYED
52659.0,STARLINK-3960,PAYLOAD,2024-03-16 14:45:01,15.08838528,0.0001477,53.2172,160.0839,83.4248,276.6913,5.0434e-05,5.15e-06,0.0,0 STARLINK-3960,1 52659U 22053D   24076.61460055  .00000515  00000-0  50434-4 0  9996,2 52659  53.2172 160.0839 0001477  83.4248 276.6913 15.08838528102065,6917.885,95.438,540.772,538.728,0.0
52659.0,STARLINK-3960,PAYLOAD,2024-03-17 13:00:25,15.08841899,0.0001726,53.2178,155.9227,73.0829,287.0352,0.0001485,2.076e-05,0.0,0 STARLINK-3960,1 52659U 22053D   24077.54195845  .00002076  00000-0  14850-3 0  9996,2 52659  53.2178 155.9227 0001726  73.0829 287.0352 15.08841899102217,6917.875,95.437,540.934,538.546,0.0
52659.0,STARLINK-3960,PAYLOAD,2024-03-17 14:35:47,15.08846876,0.0001548,53.2172,155.6236,84.8861,275.2308,0.00017568,2.51e-05,0.0,0 STARLINK-3960,1 52659U 22053D   24077.60819354  .00002510  00000-0  17568-3 0  9993,2 52659  53.2172 155.6236 0001548  84.8861 275.2308 15.08846876102216,6917.859,95.437,540.795,538.653,0.0
52659.0,STARLINK-3960,PAYLOAD,2024-03-18 11:15:49,15.08839737,0.0001555,53.2166,151.7584,89.4947,270.6224,5.0532e-05,5.16e-06,0.0,0 STARLINK-3960,1 52659U 22053D   24078.46932243  .00000516  00000-0  50532-4 0  9994,2 52659  53.2166 151.7584 0001555  89.4947 270.6224 15.08839737102355,6917.881,95.438,540.822,538.67,0.0
52659.0,STARLINK-3960,PAYLOAD,2024-03-19 11:06:35,15.0885053,0.0001695,53.2176,147.2967,101.3316,258.7867,8.6067e-05,1.082e-05,0.0,0 STARLINK-3960,1 52659U 22053D   24079.46291387  .00001082  00000-0  86067-4 0  9993,2 52659  53.2176 147.2967 0001695 101.3316 258.7867 15.08850530102501,6917.848,95.437,540.886,538.541,0.0
52659.0,STARLINK-3960,PAYLOAD,2024-03-20 10:57:23,15.08838263,0.000167,53.2173,142.834,108.1263,251.9911,2.0473e-06,-2.55e-06,0.0,0 STARLINK-3960,1 52659U 22053D   24080.45652301 -.00000255  00000-0  20473-5 0  9993,2 52659  53.2173 142.8340 0001670 108.1263 251.9911 15.08838263102653,6917.886,95.438,540.906,538.595,0.0
52659.0,STARLINK-3960,PAYLOAD,2024-03-21 13:58:57,15.08836859,0.000158,53.2161,137.7799,93.9148,266.2025,7.4181e-05,8.93e-06,0.0,0 STARLINK-3960,1 52659U 22053D   24081.58260776  .00000893  00000-0  74181-4 0  9990,2 52659  53.2161 137.7799 0001580  93.9148 266.2025 15.08836859102816,6917.89,95.438,540.848,538.662,0.0
52659.0,STARLINK-3960,PAYLOAD,2024-03-22 09:03:35,15.08837838,0.0001557,53.2161,134.2114,81.2403,278.8766,0.00012653,1.726e-05,0.0,0 STARLINK-3960,1 52659U 22053D   24082.37748879  .00001726  00000-0  12653-3 0  9994,2 52659  53.2161 134.2114 0001557  81.2403 278.8766 15.08837838102939,6917.887,95.438,540.829,538.675,0.0
52659.0,STARLINK-3960,PAYLOAD,2024-03-23 02:32:50,15.0883388,0.0001583,53.2158,130.9404,84.9284,275.1889,4.1937e-05,3.79e-06,0.0,0 STARLINK-3960,1 52659U 22053D   24083.10613740  .00000379  00000-0  41937-4 0  9995,2 52659  53.2158 130.9404 0001583  84.9284 275.1889 15.08833880103059,6917.899,95.438,540.859,538.669,0.0
52659.0,STARLINK-3960,PAYLOAD,2024-03-23 20:02:04,15.08845736,0.0001562,53.2169,127.6685,86.9192,273.1978,9.8716e-05,1.284e-05,0.0,0 STARLINK-3960,1 52659U 22053D   24083.83476913  .00001284  00000-0  98716-4 0  9997,2 52659  53.2169 127.6685 0001562  86.9192 273.1978 15.08845736103164,6917.863,95.437,540.808,538.647,0.0
52659.0,STARLINK-3960,PAYLOAD,2024-03-24 10:20:31,15.08856519,0.0001742,53.216,124.9923,97.5885,262.5305,0.00075197,0.00011705,0.0,0 STARLINK-3960,1 52659U 22053D   24084.43092358  .00011705  00000-0  75197-3 0  9997,2 52659  53.2160 124.9923 0001742  97.5885 262.5305 15.08856519103243,6917.83,95.437,540.9,538.49,0.0
52659.0,STARLINK-3960,PAYLOAD,2024-03-24 19:52:49,15.08870565,0.0001793,53.2163,123.209,82.2875,277.832,0.00056105,8.66e-05,0.0,0 STARLINK-3960,1 52659U 22053D   24084.82835595  .00008660  00000-0  56105-3 0  9992,2 52659  53.2163 123.2090 0001793  82.2875 277.8320 15.08870565103310,6917.787,95.436,540.892,538.412,0.0
52659.0,STARLINK-3960,PAYLOAD,2024-03-25 02:14:23,15.08847847,9.32e-05,53.2156,122.0177,106.5504,253.5591,0.00013675,1.89e-05,0.0,0 STARLINK-3960,1 52659U 22053D   24085.09332183  .00001890  00000-0  13675-3 0  9990,2 52659  53.2156 122.0177 0000932 106.5504 253.5591 15.08847847103350,6917.856,95.437,540.366,539.077,0.0
52659.0,STARLINK-3960,PAYLOAD,2024-03-25 08:35:54,15.08852338,0.0001008,53.2158,120.828,102.0629,258.0476,1.7654e-05,-7e-08,0.0,0 STARLINK-3960,1 52659U 22053D   24085.35827288 -.00000007  00000-0  17654-4 0  9996,2 52659  53.2158 120.8280 0001008 102.0629 258.0476 15.08852338103394,6917.843,95.437,540.405,539.01,0.0
52659.0,STARLINK-3960,PAYLOAD,2024-03-25 19:43:37,15.08843645,0.0001441,53.2154,118.7478,99.2509,260.8646,-6.1962e-05,-1.274e-05,0.0,0 STARLINK-3960,1 52659U 22053D   24085.82195770 -.00001274  00000-0 -61962-4 0  9991,2 52659  53.2154 118.7478 0001441  99.2509 260.8646 15.08843645103469,6917.869,95.437,540.731,538.737,0.0
52659.0,STARLINK-3960,PAYLOAD,2024-03-26 05:15:56,15.08809759,0.0001284,53.2157,116.9625,115.3338,244.7787,-0.00051071,-8.4e-05,0.0,0 STARLINK-3960,1 52659U 22053D   24086.21940969 -.00008400  00000-0 -51071-3 0  9990,2 52659  53.2157 116.9625 0001284 115.3338 244.7787 15.08809759103523,6917.973,95.439,540.726,538.95,0.0
52659.0,STARLINK-3960,PAYLOAD,2024-03-26 08:26:43,15.08810269,0.0001301,53.2157,116.3682,114.4166,245.6962,-0.00028328,-4.79e-05,0.0,0 STARLINK-3960,1 52659U 22053D   24086.35189330 -.00004790  00000-0 -28328-3 0  9999,2 52659  53.2157 116.3682 0001301 114.4166 245.6962 15.08810269103533,6917.971,95.439,540.736,538.936,0.0
52659.0,STARLINK-3960,PAYLOAD,2024-03-27 11:28:19,15.08829316,0.0001206,53.2158,111.3139,101.9799,258.1328,0.0011674,0.00018335,0.0,0 STARLINK-3960,1 52659U 22053D   24087.47800056  .00018335  00000-0  11674-2 0  9991,2 52659  53.2158 111.3139 0001206 101.9799 258.1328 15.08829316103711,6917.913,95.438,540.612,538.944,0.0
52659.0,STARLINK-3960,PAYLOAD,2024-03-28 09:43:41,15.08876814,0.0001198,53.2157,107.1515,95.96,264.1529,0.0011685,0.00018376,0.0,0 STARLINK-3960,1 52659U 22053D   24088.40534635  .00018376  00000-0  11685-2 0  9999,2 52659  53.2157 107.1515 0001198  95.9600 264.1529 15.08876814103854,6917.768,95.435,540.462,538.804,0.0
52659.0,STARLINK-3960,PAYLOAD,2024-03-28 17:40:37,15.08871094,0.0001447,53.2168,105.6639,93.0544,267.0614,0.00037193,5.641e-05,0.0,0 STARLINK-3960,1 52659U 22053D   24088.73654057  .00005641  00000-0  37193-3 0  9990,2 52659  53.2168 105.6639 0001447  93.0544 267.0614 15.08871094103907,6917.785,95.436,540.651,538.649,0.0
52659.0,STARLINK-3960,PAYLOAD,2024-03-29 04:48:18,15.08859095,0.0001463,53.2173,103.5843,97.6115,262.5043,-6.6842e-05,-1.352e-05,0.0,0 STARLINK-3960,1 52659U 22053D   24089.20021692 -.00001352  00000-0 -66842-4 0  9997,2 52659  53.2173 103.5843 0001463  97.6115 262.5043 15.08859095103979,6917.822,95.436,540.699,538.675,0.0
52659.0,STARLINK-3960,PAYLOAD,2024-03-29 07:59:05,15.08842544,0.0001367,53.2176,102.9904,99.5944,260.5202,0.00052257,8.039e-05,0.0,0 STARLINK-3960,1 52659U 22053D   24089.33270417  .00008039  00000-0  52257-3 0  9993,2 52659  53.2176 102.9904 0001367  99.5944 260.5202 15.08842544103995,6917.873,95.437,540.683,538.792,0.0
52659.0,STARLINK-3960,PAYLOAD,2024-03-30 09:25:14,15.08858061,0.0001236,53.2171,98.2317,92.8468,267.2666,-2.3851e-05,-6.68e-06,0.0,0 STARLINK-3960,1 52659U 22053D   24090.39253270 -.00000668  00000-0 -23851-4 0  9990,2 52659  53.2171  98.2317 0001236  92.8468 267.2666 15.08858061104155,6917.825,95.436,540.545,538.835,0.0
52659.0,STARLINK-3960,PAYLOAD,2024-03-30 17:22:10,15.08854302,0.0001131,53.2172,96.7438,88.9869,271.1252,-4.9289e-05,-1.073e-05,0.0,0 STARLINK-3960,1 52659U 22053D   24090.72373205 -.00001073  00000-0 -49289-4 0  9992,2 52659  53.2172  96.7438 0001131  88.9869 271.1252 15.08854302104191,6917.837,95.437,540.484,538.919,0.0
52659.0,STARLINK-3960,PAYLOAD,2024-03-31 04:29:52,15.08841648,0.0001176,53.2162,94.6614,88.378,271.7347,3.58e-05,2.82e-06,0.0,0 STARLINK-3960,1 52659U 22053D   24091.18741793  .00000282  00000-0  35800-4 0  9997,2 52659  53.2162  94.6614 0001176  88.3780 271.7347 15.08841648104277,6917.875,95.437,540.554,538.927,0.0
52659.0,STARLINK-3960,PAYLOAD,2024-03-31 09:16:00,15.08896901,0.0001305,53.217,93.7714,73.0984,287.0151,-0.00065922,-0.0001078,0.0,0 STARLINK-3960,1 52659U 22053D   24091.38611145 -.00010780  00000-0 -65922-3 0  9999,2 52659  53.2170  93.7714 0001305  73.0984 287.0151 15.08896901104307,6917.706,95.434,540.474,538.669,0.0
52659.0,STARLINK-3960,PAYLOAD,2024-03-31 17:12:58,15.0883755,0.000146,53.2168,92.2821,80.9994,279.1164,-4.6432e-05,-1.027e-05,0.0,0 STARLINK-3960,1 52659U 22053D   24091.71734082 -.00001027  00000-0 -46432-4 0  9992,2 52659  53.2168  92.2821 0001460  80.9994 279.1164 15.08837550104353,6917.888,95.438,540.763,538.743,0.0
52659.0,STARLINK-3960,PAYLOAD,2024-04-01 09:06:49,15.08838559,0.0001255,53.2161,89.3077,90.0411,270.0725,-1.1313e-05,-4.68e-06,0.0,0 STARLINK-3960,1 52659U 22053D   24092.37974181 -.00000468  00000-0 -11313-4 0  9999,2 52659  53.2161  89.3077 0001255  90.0411 270.0725 15.08838559104447,6917.885,95.438,540.618,538.882,0.0
52659.0,STARLINK-3960,PAYLOAD,2024-04-02 05:46:49,15.08851288,0.000141,53.2166,85.4436,85.9016,274.2137,0.00018991,2.737e-05,0.0,0 STARLINK-3960,1 52659U 22053D   24093.24084950  .00002737  00000-0  18991-3 0  9999,2 52659  53.2166  85.4436 0001410  85.9016 274.2137 15.08851288104587,6917.846,95.437,540.686,538.735,0.0
52659.0,STARLINK-3960,PAYLOAD,2024-04-02 16:54:31,15.08844567,0.0001108,53.2152,83.3621,90.904,269.2079,4.3725e-05,4.08e-06,0.0,0 STARLINK-3960,1 52659U 22053D   24093.70453458  .00000408  00000-0  43725-4 0  9990,2 52659  53.2152  83.3621 0001108  90.9040 269.2079 15.08844567104651,6917.866,95.437,540.498,538.965,0.0
